OBJECT_NAME,OBJECT_ID,EPOCH,MEAN_MOTION,ECCENTRICITY,INCLINATION,RA_OF_ASC_NODE,ARG_OF_PERICENTER,MEAN_ANOMALY,EPHEMERIS_TYPE,CLASSIFICATION_TYPE,NORAD_CAT_ID,ELEMENT_SET_NO,REV_AT_EPOCH,BSTAR,MEAN_MOTION_DOT,MEAN_MOTION_DDOT
HXMT (HUIYAN),2017-034A,2026-06-27T04:45:30.806208,15.18541951,.0032118,43.0134,127.2924,210.7538,149.1428,0,U,42758,999,49918,.22884E-3,.4634E-4,0
SAOCOM 1A,2018-076A,2026-06-27T04:40:59.143008,14.82153639,.0001543,97.8884,4.7982,79.6084,280.5303,0,U,43641,999,41758,.14035E-4,.6E-6,0
H-2A R/B,2018-084L,2026-06-27T03:57:15.204384,15.45533255,.0022187,98.8571,59.2371,6.3448,353.8073,0,U,43682,999,42266,.44067E-3,.21267E-3,0
SAOCOM 1B,2020-059A,2026-06-27T03:48:39.551904,14.82147538,.0001627,97.8888,3.8581,82.5156,277.6242,0,U,46265,999,31496,.10422E-3,.777E-5,0
CSS (TIANHE),2021-035A,2026-06-27T03:35:13.939296,15.61243807,.000811,41.4689,261.3566,161.5819,198.5315,0,U,48274,999,29472,.28574E-3,.24702E-3,0
COSMOS 2550,2021-056A,2026-06-27T06:16:47.309952,15.33807225,.0008274,67.1440,69.4301,269.5957,90.4250,0,U,48865,999,28026,.52263E-3,.17028E-3,0
CZ-2C R/B,2022-058K,2026-06-27T02:13:31.090080,15.62538828,.0031905,50.1853,111.9511,308.3908,51.4202,0,U,52794,999,22719,.45055E-3,.41745E-3,0
CZ-2C R/B,2022-132E,2026-06-27T00:27:00.281664,15.72703540,.0013955,97.2895,185.4884,52.7885,307.4650,0,U,54039,999,20749,.47559E-3,.64502E-3,0
GSLV R/B,2022-138AN,2026-06-27T03:25:33.953376,14.97301537,.0023983,87.3810,129.6410,110.6310,249.7497,0,U,54149,999,20030,.28933E-3,.3401E-4,0
XRISM,2023-137A,2026-06-27T00:34:03.794592,15.12547205,.0007809,31.0027,295.8825,62.6884,297.4549,0,U,57800,999,15435,.27222E-3,.4965E-4,0
ACS3,2024-077B,2026-06-26T12:48:59.385024,13.94542288,.0095187,97.1683,94.2429,57.1858,303.8432,0,U,59588,999,10934,.36073E-2,.4974E-4,0
CZ-8A R/B,2025-231K,2026-06-27T04:24:39.062880,14.30157465,.0116494,50.0056,356.7861,259.1924,99.5862,0,U,66004,999,3637,.57663E-4,-.2E-7,0
SZ-21 MODULE,2025-246C,2026-06-26T14:09:05.760000,15.77194503,.0005018,41.4719,248.7328,65.4550,294.6818,0,U,66515,999,3522,.26051E-3,.43902E-3,0
